[{"OBJECT_NAME":"XINGCHI-1 02B","OBJECT_ID":"2023-187C","EPOCH":"2026-03-09T22:36:06.861312","MEAN_MOTION":14.854851,"ECCENTRICITY":0.00120604,"INCLINATION":97.9317,"RA_OF_ASC_NODE":153.3872,"ARG_OF_PERICENTER":104.6634,"MEAN_ANOMALY":255.5919,"EPHEMERIS_TYPE":0,"CLASSIFICATION_TYPE":"U","NORAD_CAT_ID":58498,"ELEMENT_SET_NO":999,"REV_AT_EPOCH":12244,"BSTAR":0.00027337967,"MEAN_MOTION_DOT":2.307e-5,"MEAN_MOTION_DDOT":0},{"OBJECT_NAME":"CZ-4 DEB","OBJECT_ID":"2007-042E","EPOCH":"2026-03-09T05:05:13.801056","MEAN_MOTION":14.89671222,"ECCENTRICITY":0.00640153,"INCLINATION":98.6325,"RA_OF_ASC_NODE":167.9775,"ARG_OF_PERICENTER":42.5531,"MEAN_ANOMALY":318.0619,"EPHEMERIS_TYPE":0,"CLASSIFICATION_TYPE":"U","NORAD_CAT_ID":35397,"ELEMENT_SET_NO":999,"REV_AT_EPOCH":97028,"BSTAR":0.0012361728,"MEAN_MOTION_DOT":0.00012236,"MEAN_MOTION_DDOT":0}]
